[{"OBJECT_NAME":"STARLINK-32239","OBJECT_ID":"2024-204U","EPOCH":"2026-03-09T13:28:20.245152","MEAN_MOTION":15.3018969,"ECCENTRICITY":0.000122,"INCLINATION":53.1597,"RA_OF_ASC_NODE":127.9791,"ARG_OF_PERICENTER":70.5548,"MEAN_ANOMALY":289.5585,"EPHEMERIS_TYPE":0,"CLASSIFICATION_TYPE":"U","NORAD_CAT_ID":61892,"ELEMENT_SET_NO":999,"REV_AT_EPOCH":7507,"BSTAR":1.2187e-5,"MEAN_MOTION_DOT":2.0e-8,"MEAN_MOTION_DDOT":0},{"OBJECT_NAME":"OBJECT P","OBJECT_ID":"2018-099P","EPOCH":"2026-03-09T16:35:55.790016","MEAN_MOTION":15.30834106,"ECCENTRICITY":0.00076856,"INCLINATION":97.4366,"RA_OF_ASC_NODE":131.9195,"ARG_OF_PERICENTER":276.7627,"MEAN_ANOMALY":83.2739,"EPHEMERIS_TYPE":0,"CLASSIFICATION_TYPE":"U","NORAD_CAT_ID":43771,"ELEMENT_SET_NO":999,"REV_AT_EPOCH":39830,"BSTAR":0.00063632878,"MEAN_MOTION_DOT":0.00018926,"MEAN_MOTION_DDOT":0}]
